[{"OBJECT_NAME":"STARLINK-4031","OBJECT_ID":"2022-053Z","EPOCH":"2026-03-09T11:34:38.111520","MEAN_MOTION":15.08844203,"ECCENTRICITY":0.00013371,"INCLINATION":53.2162,"RA_OF_ASC_NODE":145.052,"ARG_OF_PERICENTER":78.6905,"MEAN_ANOMALY":281.4237,"EPHEMERIS_TYPE":0,"CLASSIFICATION_TYPE":"U","NORAD_CAT_ID":52679,"ELEMENT_SET_NO":999,"REV_AT_EPOCH":21110,"BSTAR":2.909626e-6,"MEAN_MOTION_DOT":-2.42e-6,"MEAN_MOTION_DDOT":0},{"OBJECT_NAME":"TITAN 3C TRANSTAGE DEB","OBJECT_ID":"1965-082PP","EPOCH":"2026-03-08T23:49:16.681152","MEAN_MOTION":15.10619215,"ECCENTRICITY":0.0014169,"INCLINATION":32.2612,"RA_OF_ASC_NODE":312.9247,"ARG_OF_PERICENTER":37.7873,"MEAN_ANOMALY":322.3781,"EPHEMERIS_TYPE":0,"CLASSIFICATION_TYPE":"U","NORAD_CAT_ID":3454,"ELEMENT_SET_NO":999,"REV_AT_EPOCH":23071,"BSTAR":0.00075143557,"MEAN_MOTION_DOT":0.00012814,"MEAN_MOTION_DDOT":0}]
